OBJECT_NAME,OBJECT_ID,EPOCH,MEAN_MOTION,ECCENTRICITY,INCLINATION,RA_OF_ASC_NODE,ARG_OF_PERICENTER,MEAN_ANOMALY,EPHEMERIS_TYPE,CLASSIFICATION_TYPE,NORAD_CAT_ID,ELEMENT_SET_NO,REV_AT_EPOCH,BSTAR,MEAN_MOTION_DOT,MEAN_MOTION_DDOT
TIANTONG-1 2,2020-082A,2026-06-26T06:18:12.845088,1.00272845,.00017255,0.7789,328.8577,115.9141,49.1107,0,U,46916,999,2074,0,-.344E-5,0
LUCAS (JDRS-1),2020-089A,2026-06-26T02:43:12.789408,1.00271849,.00024358,0.0365,281.4515,158.1689,326.2214,0,U,47202,999,2050,0,-.225E-5,0
SXM-7,2020-096A,2026-06-26T07:04:01.337088,1.00268884,.00039705,0.0336,105.7909,16.7122,172.7607,0,U,47240,999,753,0,-.194E-5,0
CMS-01,2020-099A,2026-06-26T02:40:58.005408,1.00272576,.000306,0.0336,95.7830,182.9255,118.7643,0,U,47256,999,2028,0,-.154E-5,0
TURKSAT 5A,2021-001A,2026-06-26T05:51:27.468288,1.00271558,.00002969,0.0171,58.6689,352.7671,341.7277,0,U,47306,999,2005,0,.165E-5,0
TIANTONG-1 3,2021-003A,2026-06-25T16:24:33.997248,1.00270214,.00035272,1.7485,339.8828,117.5911,143.9755,0,U,47321,999,2004,0,-.143E-5,0
TJS-6,2021-010A,2026-06-26T06:33:26.384256,1.00272894,.00033685,0.2264,263.4904,221.9964,65.7464,0,U,47613,999,1989,0,.54E-6,0
SBIRS GEO-5 (USA 315),2021-042A,2026-06-25T23:18:42.517152,1.00272492,.00018153,5.0909,329.2001,128.5168,259.8703,0,U,48618,999,1886,0,-.256E-5,0
FENGYUN 4B,2021-047A,2026-06-26T01:04:28.863264,1.00273283,.00058715,0.1751,78.5898,278.6922,37.7440,0,U,48808,999,1865,0,-.32E-5,0
SXM-8,2021-049A,2026-06-26T03:42:38.718720,1.00271416,.00054207,0.0176,16.9697,17.4652,210.3640,0,U,48838,999,1867,0,-.194E-5,0
TIANLIAN 1-05,2021-063A,2026-06-26T05:47:20.363424,1.00273400,.00008162,1.6171,80.6408,13.2273,284.1498,0,U,49011,999,1816,0,.118E-5,0
STAR ONE D2,2021-069A,2026-06-24T05:27:50.739840,1.00269113,.00020708,0.0158,349.5895,129.4688,165.1931,0,U,49055,999,1801,0,0,0
EUTELSAT QUANTUM,2021-069B,2026-06-26T04:13:30.963648,1.00270067,.00026556,0.0145,330.8648,122.8405,291.6788,0,U,49056,999,1801,0,.137E-5,0
ZHONGXING-2E,2021-071A,2026-06-26T02:45:12.597696,1.00271249,.0002053,0.0436,158.9380,332.4449,282.2385,0,U,49062,999,1812,0,-.28E-5,0
TJS-7,2021-077A,2026-06-26T06:50:40.253568,1.00276143,.00036573,0.3312,264.8462,118.1924,254.5855,0,U,49115,999,964,0,-.113E-5,0
CHINASAT 9B,2021-080A,2026-06-26T02:46:12.502272,1.00271583,.00024106,0.0188,281.5435,192.5613,303.1020,0,U,49125,999,1773,0,-.302E-5,0
SHIJIAN-21 (SJ-21),2021-094A,2026-06-26T07:26:57.834240,1.00267111,.00495221,5.1343,61.1321,168.0565,284.9342,0,U,49330,999,545,0,-.342E-5,0
SES-17,2021-095A,2026-06-25T22:51:38.688768,1.00270262,.00011696,0.0241,40.4215,51.8184,97.6590,0,U,49332,999,1794,0,-.261E-5,0
SYRACUSE 4A,2021-095B,2026-06-26T05:55:34.573152,1.00271067,.0001534,0.0267,16.3119,74.0845,318.3850,0,U,49333,999,1803,0,0,0
QZS-1R (MICHIBIKI-1R),2021-096A,2026-06-25T14:54:03.356352,1.00253341,.07555375,37.4786,79.4571,271.9543,279.2646,0,U,49336,999,1709,0,-.314E-5,0
ZHONGXING-1D,2021-114A,2026-06-26T06:19:42.701088,1.00272674,.00003428,0.0444,169.8766,350.6854,338.9395,0,U,49505,999,1691,0,-.325E-5,0
STPSAT-6,2021-118A,2026-06-26T07:26:42.376416,1.00270688,.00010778,0.3445,85.3411,270.5943,278.4896,0,U,49817,999,1666,0,-.35E-6,0
EXPRESS AMU-7,2021-123A,2026-06-26T06:23:57.294240,1.00272112,.00004044,0.0131,301.3022,79.3380,134.7462,0,U,50001,999,1663,0,-.231E-5,0
EXPRESS AMU-3,2021-123B,2026-06-25T22:52:04.740096,1.00270818,.0000191,0.0223,326.0024,347.9129,46.0832,0,U,50002,999,712,0,0,0
TIANLIAN 2-02,2021-124A,2026-06-26T06:31:19.086816,1.00272487,.00009122,0.8256,86.0023,194.4649,262.7232,0,U,50005,999,1671,0,-.4E-7,0
TURKSAT 5B,2021-126A,2026-06-26T02:29:14.128800,1.00271920,.00029843,0.0672,343.0883,19.5426,350.8968,0,U,50212,999,1638,0,.157E-5,0
INMARSAT 6-F1,2021-128A,2026-06-25T09:34:29.774208,1.00270343,.0000207,0.0179,332.6276,111.9848,56.3050,0,U,50319,999,1634,0,-.162E-5,0
SHIYAN-12 01 (SY-12 01),2021-129A,2026-06-25T16:16:22.780416,1.00043349,.0003206,3.6964,79.8012,293.6489,197.5108,0,U,50321,999,1658,0,.128E-5,0
SHIYAN-12 02 (SY-12 02),2021-129B,2026-06-25T16:28:33.612096,1.00487559,.0003037,3.6959,79.8048,56.4357,120.2652,0,U,50322,999,1658,0,-.3E-5,0
TJS-9,2021-135A,2026-06-25T23:59:51.743616,1.00272129,.00038758,0.0334,199.2511,218.3281,353.7526,0,U,50574,999,1651,0,-.288E-5,0
USA 324,2022-006A,2026-06-06T02:06:38.886912,1.00289779,.000284,0.7690,83.2777,165.6787,110.1567,0,U,51280,999,1602,0,-.58E-6,0
GOES 18,2022-021A,2026-06-26T05:14:46.221792,1.00273030,.00006333,0.0070,70.8869,53.6380,91.5066,0,U,51850,999,668,0,.108E-5,0
ZHONGXING-6D,2022-038A,2026-06-25T21:24:15.388128,1.00274198,.0000375,0.0159,49.8558,160.0164,150.1257,0,U,52255,999,1551,0,0,0
NILESAT 301,2022-061A,2026-06-26T05:40:36.008832,1.00272711,.00048846,0.0453,351.2440,68.2913,292.9738,0,U,52817,999,1482,0,-.47E-6,0
CMS-02 (GSAT-24),2022-067A,2026-06-26T04:23:30.006816,1.00271711,.00016541,0.0394,252.5371,126.8324,43.8298,0,U,52903,999,1469,0,-.154E-5,0
MEASAT 3D,2022-067B,2026-06-26T02:43:20.276832,1.00272262,.00007889,0.0444,309.3671,101.0224,356.1969,0,U,52904,999,1473,0,-.231E-5,0
SES-22,2022-071A,2026-06-26T06:50:41.922816,1.00270190,.00013276,0.0139,310.3158,131.2442,156.5244,0,U,52933,999,761,0,.116E-5,0
WFOV (USA 332),2022-073A,2026-06-25T23:25:56.823168,1.00271255,.0001793,3.7334,78.4227,261.4511,44.9981,0,U,52940,999,1445,0,-.355E-5,0
TIANLIAN 2-03,2022-078A,2026-06-26T05:45:35.529984,1.00271040,.00011373,0.6936,77.1990,338.5851,315.5372,0,U,53100,999,1463,0,.82E-6,0
SBIRS GEO-6 (USA 336),2022-092A,2026-06-26T06:22:12.460800,1.00271964,.0002186,3.2420,317.6447,129.7903,61.5130,0,U,53355,999,1432,0,-.278E-5,0
EUTELSAT KONNECT VHTS,2022-110A,2026-06-25T22:52:39.953280,1.00257067,.00025206,0.0630,100.1875,5.5045,154.2631,0,U,53765,999,692,0,.25E-6,0
ZHONGXING-1E,2022-112A,2026-06-26T04:23:07.542816,1.00272145,.00002366,0.0125,164.3932,167.0887,90.0282,0,U,53813,999,1393,0,-.139E-5,0
SES-20,2022-123A,2026-06-24T04:44:33.408960,1.00269292,.00020535,0.0251,65.9784,31.5385,142.8634,0,U,53960,999,1360,0,-.93E-6,0
SES-21,2022-123B,2026-06-23T10:21:26.129952,1.00271938,.00010078,0.0387,19.7009,64.8583,211.4828,0,U,53961,999,727,0,0,0
GALAXY 33 (G-33),2022-128A,2026-06-26T06:23:39.501888,1.00271340,.00020542,0.0139,4.2187,85.3458,147.7428,0,U,54026,999,1383,0,.9E-6,0
GALAXY 34 (G-34),2022-128B,2026-06-26T06:26:09.054240,1.00266230,.00020077,0.0121,28.0825,73.1427,140.7009,0,U,54027,999,1400,0,.71E-6,0
ANGOSAT 2,2022-131A,2026-06-25T22:58:29.455968,1.00273515,.00007206,0.0307,103.2080,356.0057,182.4991,0,U,54033,999,1356,0,.146E-5,0
EUTELSAT HOTBIRD 13F,2022-134A,2026-06-26T05:46:20.457984,1.00271546,.00020709,0.0445,295.2225,70.4577,8.2888,0,U,54048,999,1346,0,.98E-6,0
LDPE-2,2022-144A,2026-06-26T04:24:43.733664,1.00537401,.00020633,5.6345,63.5818,92.2319,35.7099,0,U,54219,999,1193,0,.118E-5,0
EUTELSAT HOTBIRD 13G,2022-146A,2026-06-26T02:20:22.477632,1.00270906,.00019991,0.0515,215.3368,319.0371,147.9391,0,U,54225,999,755,0,.98E-6,0
ZHONGXING-19,2022-148A,2026-06-26T06:29:11.791104,1.00272688,.00028285,0.0308,78.2868,35.1453,61.4670,0,U,54230,999,1347,0,-.7E-6,0
GALAXY 31 (G-31),2022-153A,2026-06-26T07:23:20.532192,1.00269709,.00016555,0.0183,15.9338,83.3117,165.0219,0,U,54243,999,722,0,0,0
GALAXY 32 (G-32),2022-153B,2026-06-25T20:43:18.744096,1.00272131,.00020809,0.0103,23.4109,22.7250,87.6890,0,U,54244,999,1323,0,-.164E-5,0
EUTELSAT 10B,2022-157A,2026-06-26T05:45:28.041696,1.00268547,.00019935,0.0626,97.5979,8.8324,264.2693,0,U,54259,999,1311,0,.79E-6,0
GALAXY 35 (G-35),2022-170A,2026-06-26T04:34:04.260576,1.00269655,.00022283,0.0186,2.3393,91.8328,155.5552,0,U,54741,999,1298,0,0,0
GALAXY 36 (G-36),2022-170B,2026-06-26T07:01:29.249760,1.00271626,.00028626,0.0346,125.8133,322.7060,202.2753,0,U,54742,999,1286,0,-.174E-5,0
METEOSAT-12 (MTG-I1),2022-170C,2026-06-26T05:42:28.328832,1.00275283,.00036309,0.7484,24.4270,71.6398,263.5794,0,U,54743,999,1306,0,.3E-7,0
SHIJIAN-23 (SJ-23),2023-002A,2026-06-25T16:46:54.869088,1.00086138,.0003731,3.7394,78.2127,279.1575,310.6396,0,U,55131,999,1259,0,-.283E-5,0
APSTAR-6E,2023-005A,2026-06-25T16:27:38.663424,1.00274474,.00007085,0.0265,253.6679,281.2598,119.7912,0,U,55239,999,1877,0,-.307E-5,0
USA 342,2023-008A,2026-06-25T07:07:38.771328,1.00268501,.0000253,0.0025,336.7217,165.3803,262.0787,0,U,55263,999,1259,0,0,0
LDPE-3A,2023-008B,2026-06-26T07:18:29.172384,0.99148334,.00014697,2.3715,81.5612,51.0927,105.4254,0,U,55264,999,1190,0,.6E-6,0
ELEKTRO-L 4,2023-016A,2026-06-25T18:41:12.375744,1.00271340,.00009806,0.0822,150.6002,31.1462,178.2489,0,U,55506,999,1242,0,-.48E-6,0
AMAZONAS NEXUS,2023-017A,2026-06-23T23:47:14.724096,1.00273041,.00050354,0.0361,39.7182,35.9228,132.3280,0,U,55508,999,711,0,-.276E-5,0
ZHONGXING-26,2023-023A,2026-06-26T06:18:12.845088,1.00274356,.00033782,0.0690,71.1877,21.9123,40.9482,0,U,55686,999,1232,0,-.342E-5,0
LUCH-5X (OLYMP-K 2),2023-031A,2026-06-25T16:19:00.028416,1.00269861,.0000958,0.0334,79.3020,145.9102,355.3375,0,U,55841,999,1202,0,.44E-6,0
GAOFEN-13 02,2023-036A,2026-06-25T21:51:38.105280,1.00269550,.00037898,1.0220,2.2643,339.4215,48.5110,0,U,55912,999,1218,0,-.209E-5,0
SES-18,2023-038A,2026-06-26T06:46:43.301568,1.00272223,.00005538,0.0368,278.4845,224.0371,130.4617,0,U,55970,999,1219,0,-.9E-6,0
SES-19,2023-038B,2026-06-26T04:28:19.564320,1.00272337,.00019686,0.0155,323.2858,133.0708,110.1208,0,U,55971,999,1218,0,.99E-6,0
INTELSAT 40E (IS-40E),2023-052A,2026-06-24T07:56:38.501952,1.00269586,.00024647,0.0200,27.5285,97.1687,175.9456,0,U,56174,999,1189,0,0,0
VIASAT-3 F1,2023-060A,2026-06-24T12:13:22.149696,1.00269346,.00011572,0.0223,357.1841,93.0700,276.7981,0,U,56370,999,1150,0,0,0
ARCTURUS,2023-060B,2026-06-23T00:52:21.631008,1.00548738,.00022996,2.7882,79.8710,243.3482,34.0386,0,U,56371,999,1151,0,-.127E-5,0
GS-1,2023-060C,2026-06-25T21:34:47.877600,1.00272191,.00037625,2.7474,79.7328,280.4751,326.9793,0,U,56372,999,762,0,-.216E-5,0
